[{"OBJECT_NAME":"STARLINK-32645","OBJECT_ID":"2024-239W","EPOCH":"2026-03-09T14:26:57.131232","MEAN_MOTION":15.30185792,"ECCENTRICITY":0.0001165,"INCLINATION":53.1578,"RA_OF_ASC_NODE":181.3223,"ARG_OF_PERICENTER":73.7282,"MEAN_ANOMALY":286.3846,"EPHEMERIS_TYPE":0,"CLASSIFICATION_TYPE":"U","NORAD_CAT_ID":62321,"ELEMENT_SET_NO":999,"REV_AT_EPOCH":6955,"BSTAR":0.00091346,"MEAN_MOTION_DOT":0.00026781,"MEAN_MOTION_DDOT":0},{"OBJECT_NAME":"CZ-6A DEB","OBJECT_ID":"2024-140JQ","EPOCH":"2026-03-09T16:05:49.477056","MEAN_MOTION":15.15394204,"ECCENTRICITY":0.00800164,"INCLINATION":89.0638,"RA_OF_ASC_NODE":284.0631,"ARG_OF_PERICENTER":105.771,"MEAN_ANOMALY":255.2376,"EPHEMERIS_TYPE":0,"CLASSIFICATION_TYPE":"U","NORAD_CAT_ID":60861,"ELEMENT_SET_NO":999,"REV_AT_EPOCH":8511,"BSTAR":0.0025246282,"MEAN_MOTION_DOT":0.00051962,"MEAN_MOTION_DDOT":0}]
